[{"OBJECT_NAME":"ONEWEB-0574","OBJECT_ID":"2023-043T","EPOCH":"2026-03-09T13:48:57.505248","MEAN_MOTION":13.2182565,"ECCENTRICITY":0.0001436,"INCLINATION":87.9173,"RA_OF_ASC_NODE":263.8283,"ARG_OF_PERICENTER":91.5424,"MEAN_ANOMALY":268.5874,"EPHEMERIS_TYPE":0,"CLASSIFICATION_TYPE":"U","NORAD_CAT_ID":56063,"ELEMENT_SET_NO":999,"REV_AT_EPOCH":14511,"BSTAR":9.7251e-5,"MEAN_MOTION_DOT":5.3e-7,"MEAN_MOTION_DDOT":0},{"OBJECT_NAME":"DELTA 1 DEB","OBJECT_ID":"1966-087E","EPOCH":"2026-03-09T12:12:12.925152","MEAN_MOTION":13.25110686,"ECCENTRICITY":0.00504697,"INCLINATION":101.7667,"RA_OF_ASC_NODE":77.3995,"ARG_OF_PERICENTER":95.8923,"MEAN_ANOMALY":58.3222,"EPHEMERIS_TYPE":0,"CLASSIFICATION_TYPE":"U","NORAD_CAT_ID":6213,"ELEMENT_SET_NO":999,"REV_AT_EPOCH":78314,"BSTAR":0.0077530095,"MEAN_MOTION_DOT":3.336e-5,"MEAN_MOTION_DDOT":0}]
